PHISAT 2                
1 60470U 24149C   26068.78834181  .00008925  00000+0  31421-3 0  9996
2 60470  97.3806 148.6498 0001175 168.6230 191.5037 15.29548631 86792
STARLINK-36095          
1 66871U 25281Z   26068.22834174  .00046695  00000+0  16952-2 0  9993
2 66871  43.0043 346.1916 0002338 259.0875 100.9714 15.27588294 16095
